OBJECT_NAME,OBJECT_ID,EPOCH,MEAN_MOTION,ECCENTRICITY,INCLINATION,RA_OF_ASC_NODE,ARG_OF_PERICENTER,MEAN_ANOMALY,EPHEMERIS_TYPE,CLASSIFICATION_TYPE,NORAD_CAT_ID,ELEMENT_SET_NO,REV_AT_EPOCH,BSTAR,MEAN_MOTION_DOT,MEAN_MOTION_DDOT
LEMUR-2-FINNIAN,2025-276DX,2026-06-22T11:34:22.581984,15.00433549,.0008853,97.5300,244.3061,74.1570,286.0630,0,U,66782,999,2079,.41390992E-3,.5153E-4,0
LEMUR-2-STARLIGHT,2025-276DY,2026-06-22T17:02:47.981184,14.99088899,.00148999,97.5247,244.1609,112.3197,247.9607,0,U,66783,999,3102,.36571761E-3,.4395E-4,0
LEMUR-2-TARTIFLETTE,2025-276DZ,2026-06-22T17:00:28.554912,14.99108960,.00138602,97.5252,244.1667,118.9343,241.3272,0,U,66784,999,3102,.29041641E-3,.3478E-4,0
LEMUR-2-VUKASIN,2025-276EA,2026-06-22T10:20:18.839904,15.00410414,.00058544,97.5292,244.2071,112.0523,248.1324,0,U,66785,999,3093,.30946129E-3,.3834E-4,0
LEMUR-2-HOTSPUR-TOM,2025-276EB,2026-06-22T16:50:19.685472,14.99007706,.0015144,97.5251,244.1399,111.5071,248.7768,0,U,66786,999,3095,.32154848E-3,.3849E-4,0
LEMUR-2-MYRA,2025-276EC,2026-06-22T11:06:12.805344,15.00310527,.00172343,97.5213,244.1708,124.2487,236.0373,0,U,66787,999,3100,.46801451E-3,.5829E-4,0
LEMUR-2 FIKRETDENGIZ,2026-004A,2026-06-22T10:41:32.564256,14.88355337,.00104011,97.8021,171.9226,118.2373,241.9895,0,U,67363,999,2406,.28560821E-3,.2592E-4,0
TWILIGHT-1 OBJECT B,2026-004B,2026-06-22T11:19:57.880416,14.87716989,.00101795,97.8063,171.9618,109.4200,250.8118,0,U,67364,999,2407,.14951695E-3,.1309E-4,0
LEMUR-2-MARIO-SOUSA,2026-004C,2026-06-22T10:16:59.117664,14.88548815,.00100269,97.7993,171.9018,119.0000,241.2224,0,U,67365,999,2407,.35408179E-3,.3242E-4,0
LEMUR-2-SONNENBLUME,2026-004E,2026-06-22T15:06:08.381952,14.88339049,.00095154,97.7985,172.0818,119.9091,240.3072,0,U,67367,999,2410,.22063373E-3,.1989E-4,0
LEMUR-2-WOBLER,2026-004F,2026-06-22T19:46:04.910016,14.88548357,.00099049,97.8041,172.4010,110.2680,249.9602,0,U,67368,999,2413,.32113766E-3,.2935E-4,0
LEMUR-2-GRAM-E-SUE,2026-004H,2026-06-22T11:28:52.957344,14.88489659,.00085222,97.7975,171.9489,121.3029,238.9023,0,U,67370,999,2408,.19336517E-3,.1742E-4,0
LEMUR-2-KATIE,2026-004AA,2026-06-22T17:29:16.358784,14.90074701,.00047909,97.8034,172.6724,81.8355,278.3406,0,U,67387,999,2413,.26803369E-3,.2534E-4,0
LEMUR-2-HCS-BAZUS,2026-004AB,2026-06-22T17:27:45.385632,14.90112864,.00042576,97.8024,172.6519,79.6855,280.4843,0,U,67388,999,2413,.41328685E-3,.3942E-4,0
