LEMUR-2-FINNIAN         
1 66782U 25276DX  26173.48220581  .00005153  00000+0  41391-3 0  9994
2 66782  97.5300 244.3061 0008853  74.1570 286.0630 15.00433549 20790
LEMUR-2-STARLIGHT       
1 66783U 25276DY  26173.71027756  .00004395  00000+0  36572-3 0  9992
2 66783  97.5247 244.1609 0014899 112.3197 247.9607 14.99088899 31023
LEMUR-2-TARTIFLETTE     
1 66784U 25276DZ  26173.70866383  .00003478  00000+0  29042-3 0  9994
2 66784  97.5252 244.1667 0013860 118.9343 241.3272 14.99108960 31024
LEMUR-2-VUKASIN         
1 66785U 25276EA  26173.43077361  .00003834  00000+0  30946-3 0  9996
2 66785  97.5292 244.2071 0005854 112.0523 248.1324 15.00410414 30933
LEMUR-2-HOTSPUR-TOM     
1 66786U 25276EB  26173.70161673  .00003849  00000+0  32155-3 0  9997
2 66786  97.5251 244.1399 0015144 111.5071 248.7768 14.99007706 30959
LEMUR-2-MYRA            
1 66787U 25276EC  26173.46264821  .00005829  00000+0  46801-3 0  9993
2 66787  97.5213 244.1708 0017234 124.2487 236.0373 15.00310527 31006
LEMUR-2 FIKRETDENGIZ    
1 67363U 26004A   26173.44551579  .00002592  00000+0  28561-3 0  9998
2 67363  97.8021 171.9226 0010401 118.2373 241.9895 14.88355337 24060
TWILIGHT-1 OBJECT B     
1 67364U 26004B   26173.47219769  .00001309  00000+0  14952-3 0  9998
2 67364  97.8063 171.9618 0010179 109.4200 250.8118 14.87716989 24076
LEMUR-2-MARIO-SOUSA     
1 67365U 26004C   26173.42846201  .00003242  00000+0  35408-3 0  9998
2 67365  97.7993 171.9018 0010026 119.0000 241.2224 14.88548815 24072
LEMUR-2-SONNENBLUME     
1 67367U 26004E   26173.62926368  .00001989  00000+0  22063-3 0  9994
2 67367  97.7985 172.0818 0009515 119.9091 240.3072 14.88339049 24107
LEMUR-2-WOBLER          
1 67368U 26004F   26173.82366794  .00002935  00000+0  32114-3 0  9998
2 67368  97.8041 172.4010 0009904 110.2680 249.9602 14.88548357 24131
LEMUR-2-GRAM-E-SUE      
1 67370U 26004H   26173.47839071  .00001742  00000+0  19337-3 0  9992
2 67370  97.7975 171.9489 0008522 121.3029 238.9023 14.88489659 24086
LEMUR-2-KATIE           
1 67387U 26004AA  26173.72866156  .00002534  00000+0  26803-3 0  9998
2 67387  97.8034 172.6724 0004790  81.8355 278.3406 14.90074701 24136
LEMUR-2-HCS-BAZUS       
1 67388U 26004AB  26173.72760863  .00003942  00000+0  41329-3 0  9991
2 67388  97.8024 172.6519 0004257  79.6855 280.4843 14.90112864 24138
